ONEWEB-0706             
1 61611U 24188T   25356.90273820  .00000559  00000+0  15656-2 0  9993
2 61611  87.8795  71.4123 0001198 117.0283 243.0967 13.10371622 60294
ONEWEB-0707             
1 61612U 24188U   25356.90937487  .00000319  00000+0  87785-3 0  9997
2 61612  87.8814  71.3899 0001112 113.3693 246.7551 13.10370673 60234
ONEWEB-0708             
1 61613U 24188V   25356.62219120 -.00000595  00000+0 -17416-2 0  9995
2 61613  87.8801  71.4815 0001824 124.0380 236.0921 13.10371749 60173
